# From MPEC 2022-S20
C/1995 O1 (Hale-Bopp),e,89.3081,282.6904,130.4109,176.9445,0.0004187,0.99496860,0.0000,03/29.6252/1997,2000,g -2.0,4.0
# From NK 1615
P/1996 R2 (Lagerkvist),e,2.6010,40.0086,333.3944,3.774597,0.1343997,0.31457029,180.7769,10/20.0/2022,2000,g 11.5,4.0
# From MPC 75703
P/1998 VS24 (LINEAR),e,5.0265,159.0392,244.6252,4.525411,0.1023804,0.24314504,177.5193,10/20.0/2022,2000,g 13.0,2.0
# From NK 731
P/1999 RO28 (LONEOS),e,7.5656,137.8719,231.2975,3.426502,0.1553916,0.67252425,188.1842,10/20.0/2022,2000,g 20.0,2.0
# From MPC 75704
P/1999 XN120 (Catalina),e,5.0298,285.2963,161.6882,4.179001,0.1153706,0.21040166,226.1448,10/20.0/2022,2000,g 13.5,2.0
# From NK 744
P/2000 R2 (LINEAR),e,11.6866,160.2856,176.5884,3.467666,0.1526329,0.53142491,186.2348,10/20.0/2022,2000,g 18.0,4.0
# From MPC 43019
P/2001 H5 (NEAT),e,8.3671,328.6842,224.7384,6.095958,0.0654849,0.59820486,167.8449,10/20.0/2022,2000,g 12.0,4.0
# From MPC 75704
P/2001 Q6 (NEAT),e,56.9115,22.1848,42.9382,7.958631,0.0438982,0.82334904,338.2092,10/20.0/2022,2000,g 13.5,4.0
# From MPC 47727
P/2002 EJ57 (LINEAR),e,4.9776,330.3079,167.2888,6.463480,0.0599797,0.59238862,95.1063,10/20.0/2022,2000,g 12.5,4.0
# From MPC109588
P/2002 T6 (NEAT-LINEAR),e,10.8520,206.0684,219.5502,7.729591,0.0458637,0.56250112,330.6992,10/20.0/2022,2000,g 10.5,4.0
# From MPC 75007
C/2002 VQ94 (LINEAR),e,70.6907,35.1403,99.9834,184.2989,0.0003939,0.96306602,2.4058,10/20.0/2022,2000,g  9.5,2.0
# From MPC 50354
P/2003 F2 (NEAT),e,11.6112,358.9938,192.2617,6.501931,0.0594485,0.54139158,63.7781,10/20.0/2022,2000,g 16.5,2.0
# From MPC 50139
P/2003 QX29 (NEAT),e,11.3934,264.5152,37.6609,8.015913,0.0434285,0.47255786,315.6370,10/20.0/2022,2000,g  8.5,4.0
# From MPC105235
P/2003 T12 (SOHO),e,11.0225,174.5859,219.7494,2.585450,0.2370827,0.77013866,212.3617,10/20.0/2022,2000,g 17.0,4.0
# From MPEC 2022-TA6
P/2004 A1 (LONEOS),e,10.5517,124.8583,21.1033,7.971019,0.0437959,0.31010814,292.0729,10/20.0/2022,2000,g  6.5,4.0
# From MPC 54558
P/2004 DO29 (Spacewatch-LINEAR),e,14.5311,147.3767,40.5100,7.295622,0.0500162,0.44127601,330.3525,10/20.0/2022,2000,g 13.5,2.0
# From MPC 54823
P/2004 FY140 (LINEAR),e,2.1348,326.7801,242.1104,4.906886,0.0906766,0.16785948,240.4910,10/20.0/2022,2000,g 12.5,2.0
# From MPC 53304
P/2004 R3 (LINEAR-NEAT),e,12.7819,305.3206,37.6835,4.764188,0.0947809,0.25569171,37.3893,10/20.0/2022,2000,g 14.5,4.0
# From MPC 55521
P/2004 V3 (Siding Spring),e,50.4438,356.1295,322.4856,7.130023,0.0517687,0.44593341,339.3416,10/20.0/2022,2000,g 11.5,4.0
# From MPC 75705
P/2004 V5 (LINEAR-Hill),e,19.3430,47.7828,87.5676,7.989749,0.0436420,0.44474466,283.2317,10/20.0/2022,2000,g  8.0,4.0
# From MPC 54164
P/2005 E1 (Tubbiolo),e,4.2631,335.5756,193.8896,7.050286,0.0526495,0.37557749,341.9223,10/20.0/2022,2000,g 10.0,4.0
# From MPC 79019
P/2005 J1 (McNaught),e,31.7392,268.8280,338.9300,3.571886,0.1460016,0.56902594,214.5702,10/20.0/2022,2000,g 16.5,4.0
# From MPC 74246
P/2005 L1 (McNaught),e,7.7292,138.2243,150.0742,3.990500,0.1236412,0.21231143,43.1961,10/20.0/2022,2000,g  9.5,4.0
# From MPC 75706
P/2005 S2 (Skiff),e,3.1356,161.2230,229.4223,8.005194,0.0435157,0.19853858,260.7575,10/20.0/2022,2000,g  7.5,4.0
# From MPC 75706
P/2005 SB216 (LONEOS),e,24.1139,1.1241,83.2458,7.145378,0.0516020,0.46462249,298.9236,10/20.0/2022,2000,g 12.0,2.0
# From MPC 73461
P/2005 T3 (Read),e,6.2238,27.6690,6.6804,7.588337,0.0471503,0.17536336,294.2497,10/20.0/2022,2000,g  9.0,4.0
# From MPC 73461
P/2005 T4 (SWAN),e,160.2676,25.9148,41.8327,9.359117,0.0344232,0.92977937,214.1280,10/20.0/2022,2000,g 15.0,4.0
# From MPC 75706
P/2005 T5 (Broughton),e,21.3788,57.0010,304.6908,7.280698,0.0501701,0.55265806,311.4237,10/20.0/2022,2000,g 11.0,4.0
# From MPC 75707
P/2006 HR30 (Siding Spring),e,31.8597,309.8344,117.3756,7.808803,0.0451676,0.84309828,261.4744,10/20.0/2022,2000,g 11.0,4.0
# From MPEC 2022-TA7
P/2007 A2 (Christensen),e,26.4831,300.9126,186.6924,6.336256,0.0617952,0.55834211,357.6198,10/20.0/2022,2000,g 13.5,4.0
# From MPC 75707
P/2007 C2 (Catalina),e,8.6073,275.3017,180.1719,6.999028,0.0532289,0.47211070,293.4537,10/20.0/2022,2000,g 10.0,4.0
# From MPC 84315
C/2007 D1 (LINEAR),e,41.5016,171.2323,339.8013,1193,0.0000239,0.99263577,0.0000,06/07.1721/2007,2000,g  3.5,4.0
# From MPC 82314
P/2007 K2 (Gibbs),e,7.6275,188.6345,347.3497,7.275736,0.0502214,0.68310892,283.0554,10/20.0/2022,2000,g 14.0,4.0
# From MPC 60925
P/2007 Q2 (Gilmore),e,10.2027,172.1531,162.8530,5.657420,0.0732447,0.67002200,50.6880,10/20.0/2022,2000,g 16.0,4.0
# From MPC 73462
P/2007 S1 (Zhao),e,5.9611,141.3522,245.2148,3.820785,0.1319700,0.33919984,1.7308,10/20.0/2022,2000,g 13.0,4.0
# From MPC 61994
P/2007 T2 (Kowalski),e,9.7521,3.3773,359.6644,3.045635,0.1854331,0.78567658,287.0137,10/20.0/2022,2000,g 18.5,4.0
# From MPC 75709
P/2008 L2 (Hill),e,25.8682,218.0176,141.2629,6.027846,0.0665979,0.61346591,346.4766,10/20.0/2022,2000,g 12.5,4.0
# From MPC 64114
P/2008 O3 (Boattini),e,32.3313,47.5640,341.1672,8.215468,0.0418558,0.69636204,219.8895,10/20.0/2022,2000,g 13.0,4.0
# From MPC 75710
P/2008 Y3 (McNaught),e,38.7789,262.8568,238.0437,8.047611,0.0431721,0.44585572,218.3261,10/20.0/2022,2000,g  8.5,4.0
# From MPC 75710
P/2009 B1 (Boattini),e,22.2356,297.0748,128.9013,6.737083,0.0563633,0.63560441,283.9243,10/20.0/2022,2000,g 13.0,4.0
# From MPC 66466
C/2009 G1 (STEREO),e,108.5121,120.5583,175.5084,465.2534,0.0000982,0.99755102,0.0000,04/18.3479/2009,2000,g  9.0,4.0
# From MPC 75710
P/2009 O3 (Hill),e,16.2888,183.6850,154.4900,7.766951,0.0455332,0.68776824,222.7386,10/20.0/2022,2000,g 12.5,4.0
# From MPC 68902
P/2009 Q5 (McNaught),e,40.9847,160.2741,209.1064,7.429849,0.0486669,0.60983838,232.8144,10/20.0/2022,2000,g 10.0,4.0
# From MPC112389
P/2009 T2 (La Sagra),e,27.6052,215.8984,216.3256,7.718659,0.0459612,0.76643101,214.9394,10/20.0/2022,2000,g 14.0,4.0
# From MPC105235
P/2009 WX51 (Catalina),e,9.5947,31.5657,118.2615,3.082787,0.1820911,0.73940498,128.0353,10/20.0/2022,2000,g 19.0,2.0
# From MPC 74247
P/2009 Y2 (Kowalski),e,29.9616,262.0425,172.1338,6.549611,0.0588005,0.63676725,271.5440,10/20.0/2022,2000,g 13.0,4.0
# From MPC 75711
P/2010 A3 (Hill),e,14.8157,63.6330,42.2837,6.086631,0.0656355,0.73373827,302.6452,10/20.0/2022,2000,g 14.0,4.0
# From MPC 75008
P/2010 C1 (Scotti),e,9.1255,141.8711,3.3715,7.105227,0.0520400,0.26045485,246.5673,10/20.0/2022,2000,g  9.5,4.0
# From MPC 75008
P/2010 D2 (WISE),e,57.0984,319.8833,119.9321,6.721195,0.0565633,0.45142648,262.4966,10/20.0/2022,2000,g 16.0,4.0
# From MPC 75009
P/2010 E2 (Jarnac),e,15.3850,177.8200,8.3021,8.640232,0.0388075,0.71943129,178.2446,10/20.0/2022,2000,g 14.0,4.0
# From MPC 72851
P/2010 H2 (Vales),e,14.2790,64.1866,128.0165,3.832116,0.1313851,0.19662891,245.4295,10/20.0/2022,2000,g  6.0,4.0
# From MPC 70361
P/2010 H3 (SOHO),e,23.0815,77.1030,26.1383,3.036276,0.1862912,0.98537905,0.0000,02/07.8645/2021,2000,g 20.0,2.0
# From MPC 73463
P/2010 H4 (Scotti),e,2.3178,44.7257,179.3164,6.600202,0.0581257,0.26616551,262.6547,10/20.0/2022,2000,g 10.5,4.0
# From MPC 74637
P/2010 H5 (Scotti),e,14.0571,24.7932,174.7374,7.170902,0.0513267,0.15251575,236.0810,10/20.0/2022,2000,g 13.0,2.0
# From MPC 98558
P/2010 J3 (McMillan),e,13.2650,106.4675,157.5778,8.980253,0.0366245,0.72556886,162.5681,10/20.0/2022,2000,g 11.0,4.0
# From MPC 84315
P/2010 JC81 (WISE),e,38.8219,30.8685,12.4278,8.105876,0.0427075,0.77789198,179.2035,10/20.0/2022,2000,g  9.0,4.0
# From MPC 74248
P/2010 T2 (PANSTARRS),e,7.8877,58.5431,352.6372,5.571266,0.0749503,0.32358729,321.5747,10/20.0/2022,2000,g 11.5,4.0
# From MPC 98558
P/2010 TO20 (LINEAR-Grauer),e,2.4787,43.2840,267.5004,5.833076,0.0699613,0.05565967,357.2418,10/20.0/2022,2000,g  9.0,4.0
# From MPC 82316
P/2010 U1 (Boattini),e,8.2203,280.6799,86.2560,6.501671,0.0594520,0.24913883,275.7617,10/20.0/2022,2000,g  9.5,4.0
# From MPEC 2022-OB6
C/2010 U3 (Boattini),e,55.5548,42.9945,88.0394,2564,0.0000076,0.99670775,0.0000,02/25.2830/2019,2000,g  1.0,4.0
# From MPC 79021
P/2010 UH55 (Spacewatch),e,8.0382,232.9045,225.1446,6.654607,0.0574144,0.56372946,242.0742,10/20.0/2022,2000,g 11.0,4.0
# From MPC 75009
P/2010 WK (LINEAR),e,11.4016,11.3335,40.9811,5.762288,0.0712544,0.69049801,314.3685,10/20.0/2022,2000,g 14.5,2.0
# From MPC 84021
P/2011 C2 (Gibbs),e,10.8873,12.1202,160.5055,7.412564,0.0488373,0.26915878,193.3805,10/20.0/2022,2000,g  9.0,4.0
# From MPC 79866
P/2011 FR143 (Lemmon),e,15.9757,190.9492,349.9337,6.863579,0.0548123,0.45065100,233.6334,10/20.0/2022,2000,g 14.0,2.0
# From MPC 82317
P/2011 JB15 (Spacewatch-Boattini),e,19.1464,153.5880,111.0494,7.366177,0.0492993,0.31598614,193.7060,10/20.0/2022,2000,g  9.0,4.0
# From MPC 87913
P/2011 N1 (ASH),e,35.7662,77.5778,330.3867,6.244653,0.0631599,0.54501168,240.1423,10/20.0/2022,2000,g 11.5,4.0
# From MPC 75714
P/2011 NO1 (Elenin),e,15.2445,295.8271,263.7083,5.531862,0.0757525,0.77460609,325.6819,10/20.0/2022,2000,g 15.0,4.0
# From MPEC 2022-ED3
P/2011 P1 (McNaught),e,5.6609,4.2313,349.1408,7.459338,0.0483786,0.32765587,215.8972,10/20.0/2022,2000,g  9.0,4.0
# From MPEC 2022-HC2
P/2011 S1 (Gibbs),e,2.6874,218.8290,192.4959,8.583195,0.0391950,0.20149124,117.1187,10/20.0/2022,2000,g  8.0,4.0
# From MPC 79022
P/2011 UA134 (Spacewatch-PANSTARRS),e,10.4404,40.3987,32.4021,5.609668,0.0741820,0.62977135,296.8680,10/20.0/2022,2000,g 17.5,4.0
# From MPC 77406
P/2011 V1 (Boattini),e,7.3749,46.7834,269.3797,3.857155,0.1301078,0.55010570,192.3876,10/20.0/2022,2000,g 15.5,4.0
# From MPC 82718
P/2011 W1 (PANSTARRS),e,3.7186,161.7848,282.7798,4.666040,0.0977871,0.28802721,24.8491,10/20.0/2022,2000,g 11.5,4.0
# From MPC 79342
P/2011 Y2 (Boattini),e,6.3775,309.3300,131.9478,6.238061,0.0632601,0.71026989,245.5536,10/20.0/2022,2000,g 15.0,4.0
# From MPEC 2022-K19
P/2012 B1 (PANSTARRS),e,7.6101,36.2165,162.3860,6.531784,0.0590414,0.40897240,200.0651,10/20.0/2022,2000,g  9.0,4.0
# From MPC 78590
P/2012 C3 (PANSTARRS),e,9.0920,135.3677,344.9542,9.748681,0.0323806,0.63011148,359.9758,10/06.0/2011,2000,g 13.0,4.0
# From MPC 84931
